{
    "links": {
        "self": "http://www.neowsapp.com/rest/v1/neo/54054360?api_key=iIulBulltgU6a56xZRHN4H3l9WmuAYTsLGpBGhQ2"
    },
    "id": "54054360",
    "neo_reference_id": "54054360",
    "name": "(2020 RQ7)",
    "designation": "2020 RQ7",
    "nasa_jpl_url": "http://ssd.jpl.nasa.gov/sbdb.cgi?sstr=54054360",
    "absolute_magnitude_h": 23.084,
    "estimated_diameter": {
        "kilometers": {
            "estimated_diameter_min": 0.0642325223,
            "estimated_diameter_max": 0.1436282863
        },
        "meters": {
            "estimated_diameter_min": 64.2325223392,
            "estimated_diameter_max": 143.6282863167
        },
        "miles": {
            "estimated_diameter_min": 0.0399122266,
            "estimated_diameter_max": 0.0892464519
        },
        "feet": {
            "estimated_diameter_min": 210.7366285913,
            "estimated_diameter_max": 471.2214268793
        }
    },
    "is_potentially_hazardous_asteroid": false,
    "close_approach_data": [
        {
            "close_approach_date": "2020-10-08",
            "close_approach_date_full": "2020-Oct-08 13:32",
            "epoch_date_close_approach": 1602163920000,
            "relative_velocity": {
                "kilometers_per_second": "3.7722040368",
                "kilometers_per_hour": "13579.9345324953",
                "miles_per_hour": "8438.0432099274"
            },
            "miss_distance": {
                "astronomical": "0.3321504033",
                "lunar": "129.2065068837",
                "kilometers": "49688992.853320971",
                "miles": "30875308.4519765598"
            },
            "orbiting_body": "Earth"
        }
    ],
    "orbital_data": {
        "orbit_id": "4",
        "orbit_determination_date": "2020-09-26 06:45:32",
        "first_observation_date": "2020-09-12",
        "last_observation_date": "2020-09-26",
        "data_arc_in_days": 14,
        "observations_used": 23,
        "orbit_uncertainty": "7",
        "minimum_orbit_intersection": ".303162",
        "jupiter_tisserand_invariant": "3.186",
        "epoch_osculation": "2459000.5",
        "eccentricity": ".5186281291410677",
        "semi_major_axis": "2.619242666864503",
        "inclination": "8.594266254578249",
        "ascending_node_longitude": "144.7463079787937",
        "orbital_period": "1548.324663881827",
        "perihelion_distance": "1.260829742782105",
        "perihelion_argument": "245.00966971",
        "aphelion_distance": "3.977655590946901",
        "perihelion_time": "2459154.428950827860",
        "mean_anomaly": "324.2100758382938",
        "mean_motion": ".2325093750670088",
        "equinox": "J2000",
        "orbit_class": {
            "orbit_class_type": "AMO",
            "orbit_class_description": "Near-Earth asteroid orbits similar to that of 1221 Amor",
            "orbit_class_range": "1.017 AU < q (perihelion) < 1.3 AU"
        }
    },
    "is_sentry_object": false
}